NORAD_CAT_ID,OBJECT_NAME,OBJECT_TYPE,EPOCH,MEAN_MOTION,ECCENTRICITY,INCLINATION,RA_OF_ASC_NODE,ARG_OF_PERICENTER,MEAN_ANOMALY,BSTAR,MEAN_MOTION_DOT,MEAN_MOTION_DDOT,TLE_LINE0,TLE_LINE1,TLE_LINE2,SEMIMAJOR_AXIS,PERIOD,APOGEE,PERIGEE,DECAYED
52991.0,STARLINK-4285,PAYLOAD,2023-01-09 21:51:12,15.0885314,0.0002945,53.2135,248.1388,27.2631,332.8515,0.00047705,7.315e-05,0.0,0 STARLINK-4285,1 52991U 22076F   23009.91056684  .00007315  00000-0  47705-3 0  9998,2 52991  53.2135 248.1388 0002945  27.2631 332.8515 15.08853140 28374,6917.84,95.437,541.743,537.668,0.0
52991.0,STARLINK-4285,PAYLOAD,2023-01-10 10:34:18,15.08845808,0.0002365,53.2164,245.7605,16.5144,343.5925,0.00026653,3.957e-05,0.0,0 STARLINK-4285,1 52991U 22076F   23010.44048643  .00003957  00000-0  26653-3 0  9991,2 52991  53.2164 245.7605 0002365  16.5144 343.5925 15.08845808 28924,6917.863,95.437,541.364,538.092,0.0
52991.0,STARLINK-4285,PAYLOAD,2023-01-10 18:31:13,15.08845601,0.0001896,53.2152,244.2694,21.3249,338.7822,0.00039049,5.933e-05,0.0,0 STARLINK-4285,1 52991U 22076F   23010.77168523  .00005933  00000-0  39049-3 0  9996,2 52991  53.2152 244.2694 0001896  21.3249 338.7822 15.08845601 28508,6917.863,95.437,541.04,538.4169999999998,0.0
52991.0,STARLINK-4285,PAYLOAD,2023-01-10 23:17:23,15.08846136,0.000287,53.2155,243.38,15.7535,344.3546,0.00022837,3.349e-05,0.0,0 STARLINK-4285,1 52991U 22076F   23010.97040684  .00003349  00000-0  22837-3 0  9991,2 52991  53.2155 243.3800 0002870  15.7535 344.3546 15.08846136 28531,6917.861999999999,95.437,541.712,537.741,0.0
52991.0,STARLINK-4285,PAYLOAD,2023-01-11 21:32:46,15.08852313,0.0002907,53.2153,239.2164,19.6017,340.5087,5.0459e-05,5.15e-06,0.0,0 STARLINK-4285,1 52991U 22076F   23011.89776159  .00000515  00000-0  50459-4 0  9990,2 52991  53.2153 239.2164 0002907  19.6017 340.5087 15.08852313 28672,6917.843000000002,95.437,541.719,537.697,0.0
52991.0,STARLINK-4285,PAYLOAD,2023-01-11 23:08:09,15.08853819,0.000299,53.2148,238.9188,23.8063,336.3067,0.0001296999999999,1.777e-05,0.0,0 STARLINK-4285,1 52991U 22076F   23011.96400126  .00001777  00000-0  12970-3 0  9992,2 52991  53.2148 238.9188 0002990  23.8063 336.3067 15.08853819 29155,6917.838000000002,95.437,541.7719999999998,537.635,0.0
52991.0,STARLINK-4285,PAYLOAD,2023-01-12 16:37:25,15.08828508,0.0002708,53.2164,235.6493,16.2781,343.8298,-0.00013828,-2.488e-05,0.0,0 STARLINK-4285,1 52991U 22076F   23012.69265466 -.00002488  00000-0 -13828-3 0  9994,2 52991  53.2164 235.6493 0002708  16.2781 343.8298 15.08828508 29264,6917.916,95.438,541.654,537.9069999999998,0.0
52991.0,STARLINK-4285,PAYLOAD,2023-01-12 21:23:35,15.08827636,0.0002913,53.2148,234.7566,27.1376,332.9768,-9.4767e-05,-1.796e-05,0.0,0 STARLINK-4285,1 52991U 22076F   23012.89137823 -.00001796  00000-0 -94767-4 0  9994,2 52991  53.2148 234.7566 0002913  27.1376 332.9768 15.08827636 28829,6917.9180000000015,95.438,541.798,537.768,0.0
52991.0,STARLINK-4285,PAYLOAD,2023-01-13 14:52:49,15.08847611,0.0002777,53.2147,231.4855,22.6658,337.4456,-0.00029265,-4.944e-05,0.0,0 STARLINK-4285,1 52991U 22076F   23013.62001457 -.00004944  00000-0 -29265-3 0  9997,2 52991  53.2147 231.4855 0002777  22.6658 337.4456 15.08847611 29408,6917.857,95.437,541.643,537.8009999999999,0.0
52991.0,STARLINK-4285,PAYLOAD,2023-01-13 18:03:34,15.08866094,0.0002658,53.2145,230.8905,28.3669,331.7468,-0.00064792,-0.00010593,0.0,0 STARLINK-4285,1 52991U 22076F   23013.75248626 -.00010593  00000-0 -64792-3 0  9993,2 52991  53.2145 230.8905 0002658  28.3669 331.7468 15.08866094 29426,6917.801,95.436,541.504,537.827,0.0
52991.0,STARLINK-4285,PAYLOAD,2023-01-13 21:14:22,15.08843568,0.0002859,53.2145,230.2956,28.9101,331.2049,0.00014891,2.082e-05,0.0,0 STARLINK-4285,1 52991U 22076F   23013.88497779  .00002082  00000-0  14891-3 0  9999,2 52991  53.2145 230.2956 0002859  28.9101 331.2049 15.08843568 28976,6917.869000000001,95.437,541.712,537.757,0.0
52991.0,STARLINK-4285,PAYLOAD,2023-01-14 06:46:41,15.08840227,0.0002964,53.2146,228.5115,31.8286,328.2885,0.00039479,6.001e-05,0.0,0 STARLINK-4285,1 52991U 22076F   23014.28242362  .00006001  00000-0  39479-3 0  9994,2 52991  53.2146 228.5115 0002964  31.8286 328.2885 15.08840227 29501,6917.88,95.438,541.795,537.694,0.0
52991.0,STARLINK-4285,PAYLOAD,2023-01-14 21:05:09,15.08834457,0.0002883,53.214,225.835,36.9648,323.1542,0.00024478,3.609e-05,0.0,0 STARLINK-4285,1 52991U 22076F   23014.87858741  .00003609  00000-0  24478-3 0  9997,2 52991  53.2140 225.8350 0002883  36.9648 323.1542 15.08834457 29595,6917.897,95.438,541.757,537.768,0.0
52991.0,STARLINK-4285,PAYLOAD,2023-01-15 12:59:01,15.08836201,0.0002862,53.2142,222.8614,36.9628,323.1561,2.8711e-05,1.68e-06,0.0,0 STARLINK-4285,1 52991U 22076F   23015.54098839  .00000168  00000-0  28711-4 0  9998,2 52991  53.2142 222.8614 0002862  36.9628 323.1561 15.08836201 29222,6917.892,95.438,541.737,537.7769999999999,0.0
52991.0,STARLINK-4285,PAYLOAD,2023-01-15 20:55:56,15.08842766,0.0002874,53.2144,221.3747,36.7202,323.3987,0.00012959,1.775e-05,0.0,0 STARLINK-4285,1 52991U 22076F   23015.87218651  .00001775  00000-0  12959-3 0  9991,2 52991  53.2144 221.3747 0002874  36.7202 323.3987 15.08842766 29276,6917.871999999999,95.437,541.725,537.749,0.0
52991.0,STARLINK-4285,PAYLOAD,2023-01-16 06:28:15,15.08840317,0.0002822,53.2145,219.5899,40.8553,319.265,0.00014814,2.07e-05,0.0,0 STARLINK-4285,1 52991U 22076F   23016.26962810  .00002070  00000-0  14814-3 0  9999,2 52991  53.2145 219.5899 0002822  40.8553 319.2650 15.08840317 29802,6917.879,95.438,541.697,537.7919999999999,0.0
52991.0,STARLINK-4285,PAYLOAD,2023-01-16 08:03:38,15.08842252,0.0002625,53.2145,219.2921,39.9537,320.1648,0.00016771,2.382e-05,0.0,0 STARLINK-4285,1 52991U 22076F   23016.33586621  .00002382  00000-0  16771-3 0  9999,2 52991  53.2145 219.2921 0002625  39.9537 320.1648 15.08842252 29344,6917.874,95.437,541.554,537.923,0.0
52991.0,STARLINK-4285,PAYLOAD,2023-01-16 17:35:57,15.08858551,0.0002583999999999,53.2143,217.5082,39.7036,320.4145,0.0004524,6.923e-05,0.0,0 STARLINK-4285,1 52991U 22076F   23016.73329863  .00006923  00000-0  45240-3 0  9994,2 52991  53.2143 217.5082 0002584  39.7036 320.4145 15.08858551 29879,6917.8240000000005,95.436,541.476,537.901,0.0
52991.0,STARLINK-4285,PAYLOAD,2023-01-17 06:19:02,15.08848955,0.0002519,53.2146,215.1304,41.8266,318.2918,6.9207e-05,8.13e-06,0.0,0 STARLINK-4285,1 52991U 22076F   23017.26321844  .00000813  00000-0  69207-4 0  9996,2 52991  53.2146 215.1304 0002519  41.8266 318.2918 15.08848955 29959,6917.853,95.437,541.461,537.975,0.0
52991.0,STARLINK-4285,PAYLOAD,2023-01-17 12:40:35,15.08829348,0.000247,53.2142,213.9406,43.3589,316.7597,-0.00030381,-5.119e-05,0.0,0 STARLINK-4285,1 52991U 22076F   23017.52818479 -.00005119  00000-0 -30381-3 0  9996,2 52991  53.2142 213.9406 0002470  43.3589 316.7597 15.08829348 29990,6917.9130000000005,95.438,541.487,538.069,0.0
52991.0,STARLINK-4285,PAYLOAD,2023-01-17 19:02:07,15.08831559,0.0002428,53.2138,212.7508,45.0452,315.0737,-0.00018411,-3.217e-05,0.0,0 STARLINK-4285,1 52991U 22076F   23017.79314552 -.00003217  00000-0 -18411-3 0  9995,2 52991  53.2138 212.7508 0002428  45.0452 315.0737 15.08831559 29564,6917.906,95.438,541.451,538.092,0.0
52991.0,STARLINK-4285,PAYLOAD,2023-01-18 12:31:22,15.08831568,0.0002484,53.2134,209.4797,46.8543,313.2657,0.00031656,4.752e-05,0.0,0 STARLINK-4285,1 52991U 22076F   23018.52179287  .00004752  00000-0  31656-3 0  9990,2 52991  53.2134 209.4797 0002484  46.8543 313.2657 15.08831568 29678,6917.906,95.438,541.49,538.053,0.0
52991.0,STARLINK-4285,PAYLOAD,2023-01-18 15:42:09,15.0883115,0.0002501999999999,53.2134,208.885,46.8364,313.2837,0.00037272,5.647e-05,0.0,0 STARLINK-4285,1 52991U 22076F   23018.65427448  .00005647  00000-0  37272-3 0  9993,2 52991  53.2134 208.8850 0002502  46.8364 313.2837 15.08831150 30166,6917.906999999999,95.438,541.503,538.0419999999999,0.0
52991.0,STARLINK-4285,PAYLOAD,2023-01-18 18:52:55,15.08838002,0.0002495,53.2136,208.2901,46.2697,313.8501,0.0003263,4.908e-05,0.0,0 STARLINK-4285,1 52991U 22076F   23018.78675312  .00004908  00000-0  32630-3 0  9994,2 52991  53.2136 208.2901 0002495  46.2697 313.8501 15.08838002 29719,6917.886,95.438,541.4780000000001,538.025,0.0
52991.0,STARLINK-4285,PAYLOAD,2023-01-19 07:36:00,15.0884203,0.0002539,53.2135,205.911,48.1672,311.9536,0.00055897,8.62e-05,0.0,0 STARLINK-4285,1 52991U 22076F   23019.31667611  .00008620  00000-0  55897-3 0  9992,2 52991  53.2135 205.9110 0002539  48.1672 311.9536 15.08842030 29798,6917.874,95.437,541.496,537.9830000000001,0.0
52991.0,STARLINK-4285,PAYLOAD,2023-01-19 18:43:42,15.08854106,0.0002561,53.2136,203.8292,48.9444,311.1769,0.0006854,0.00010641,0.0,0 STARLINK-4285,1 52991U 22076F   23019.78035288  .00010641  00000-0  68540-3 0  9997,2 52991  53.2136 203.8292 0002561  48.9444 311.1769 15.08854106 30336,6917.837,95.437,541.474,537.931,0.0
52991.0,STARLINK-4285,PAYLOAD,2023-01-20 15:23:43,15.08848994,0.0002576,53.2141,199.963,50.2662,309.8557,0.00021442,3.127e-05,0.0,0 STARLINK-4285,1 52991U 22076F   23020.64147009  .00003127  00000-0  21442-3 0  9990,2 52991  53.2141 199.9630 0002576  50.2662 309.8557 15.08848994 30468,6917.853,95.437,541.5,537.936,0.0
52991.0,STARLINK-4285,PAYLOAD,2023-01-21 16:49:53,15.0884457,0.0002449,53.2152,195.2036,52.0566,308.0647,9.6985e-05,1.256e-05,0.0,0 STARLINK-4285,1 52991U 22076F   23021.70130860  .00001256  00000-0  96985-4 0  9991,2 52991  53.2152 195.2036 0002449  52.0566 308.0647 15.08844570 30626,6917.866,95.437,541.4259999999999,538.0369999999999,0.0
52991.0,STARLINK-4285,PAYLOAD,2023-01-22 13:29:54,15.0883735,0.0002355999999999,53.2156,191.3391,58.2792,301.8429,1.7704000000000002e-05,-7e-08,0.0,0 STARLINK-4285,1 52991U 22076F   23022.56243374 -.00000007  00000-0  17704-4 0  9997,2 52991  53.2156 191.3391 0002356  58.2792 301.8429 15.08837350 30758,6917.888000000001,95.438,541.383,538.124,0.0
